[
  {
    "OBJECT_NAME": "YAOGAN-27",
    "OBJECT_ID": "2015-040A",
    "EPOCH": "2025-05-31T20:34:32.540448",
    "MEAN_MOTION": 13.16049101,
    "ECCENTRICITY": 0.0008529,
    "INCLINATION": 100.0863,
    "RA_OF_ASC_NODE": 150.3794,
    "ARG_OF_PERICENTER": 20.0922,
    "MEAN_ANOMALY": 340.0526,
    "EPHEMERIS_TYPE": 0,
    "CLASSIFICATION_TYPE": "U",
    "NORAD_CAT_ID": 40878,
    "ELEMENT_SET_NO": 999,
    "REV_AT_EPOCH": 46901,
    "BSTAR": 6.2719e-05,
    "MEAN_MOTION_DOT": -1.8e-07,
    "MEAN_MOTION_DDOT": 0
  },
  {
    "OBJECT_NAME": "GAOFEN-9 01",
    "OBJECT_ID": "2015-047A",
    "EPOCH": "2025-05-31T21:16:20.181216",
    "MEAN_MOTION": 14.81843201,
    "ECCENTRICITY": 0.0026668,
    "INCLINATION": 97.6778,
    "RA_OF_ASC_NODE": 198.9866,
    "ARG_OF_PERICENTER": 311.9396,
    "MEAN_ANOMALY": 47.9545,
    "EPHEMERIS_TYPE": 0,
    "CLASSIFICATION_TYPE": "U",
    "NORAD_CAT_ID": 40894,
    "ELEMENT_SET_NO": 999,
    "REV_AT_EPOCH": 52370,
    "BSTAR": 0.00013688,
    "MEAN_MOTION_DOT": 1.037e-05,
    "MEAN_MOTION_DDOT": 0
  },
  {
    "OBJECT_NAME": "YAOGAN-28",
    "OBJECT_ID": "2015-064A",
    "EPOCH": "2025-05-31T20:27:28.845216",
    "MEAN_MOTION": 15.23912476,
    "ECCENTRICITY": 0.001588,
    "INCLINATION": 97.2572,
    "RA_OF_ASC_NODE": 295.6755,
    "ARG_OF_PERICENTER": 87.9516,
    "MEAN_ANOMALY": 272.354,
    "EPHEMERIS_TYPE": 0,
    "CLASSIFICATION_TYPE": "U",
    "NORAD_CAT_ID": 41026,
    "ELEMENT_SET_NO": 999,
    "REV_AT_EPOCH": 53257,
    "BSTAR": 0.00031457,
    "MEAN_MOTION_DOT": 7.558e-05,
    "MEAN_MOTION_DDOT": 0
  },
  {
    "OBJECT_NAME": "YAOGAN-29",
    "OBJECT_ID": "2015-069A",
    "EPOCH": "2025-05-31T20:36:22.747104",
    "MEAN_MOTION": 14.82626217,
    "ECCENTRICITY": 0.0002074,
    "INCLINATION": 98.0347,
    "RA_OF_ASC_NODE": 174.201,
    "ARG_OF_PERICENTER": 138.1313,
    "MEAN_ANOMALY": 222.0059,
    "EPHEMERIS_TYPE": 0,
    "CLASSIFICATION_TYPE": "U",
    "NORAD_CAT_ID": 41038,
    "ELEMENT_SET_NO": 999,
    "REV_AT_EPOCH": 51411,
    "BSTAR": 6.3356e-05,
    "MEAN_MOTION_DOT": 4.56e-06,
    "MEAN_MOTION_DDOT": 0
  },
  {
    "OBJECT_NAME": "KENT RIDGE 1",
    "OBJECT_ID": "2015-077B",
    "EPOCH": "2025-05-31T19:54:44.054784",
    "MEAN_MOTION": 15.19917381,
    "ECCENTRICITY": 0.0009013,
    "INCLINATION": 14.9788,
    "RA_OF_ASC_NODE": 215.1381,
    "ARG_OF_PERICENTER": 270.6882,
    "MEAN_ANOMALY": 89.2407,
    "EPHEMERIS_TYPE": 0,
    "CLASSIFICATION_TYPE": "U",
    "NORAD_CAT_ID": 41167,
    "ELEMENT_SET_NO": 999,
    "REV_AT_EPOCH": 52306,
    "BSTAR": 0.00014647,
    "MEAN_MOTION_DOT": 3.983e-05,
    "MEAN_MOTION_DDOT": 0
  },
  {
    "OBJECT_NAME": "TELEOS-1",
    "OBJECT_ID": "2015-077D",
    "EPOCH": "2025-05-31T05:01:12.467712",
    "MEAN_MOTION": 15.88779026,
    "ECCENTRICITY": 0.0003861,
    "INCLINATION": 14.9778,
    "RA_OF_ASC_NODE": 358.0387,
    "ARG_OF_PERICENTER": 343.9269,
    "MEAN_ANOMALY": 16.0939,
    "EPHEMERIS_TYPE": 0,
    "CLASSIFICATION_TYPE": "U",
    "NORAD_CAT_ID": 41169,
    "ELEMENT_SET_NO": 999,
    "REV_AT_EPOCH": 52492,
    "BSTAR": 0.0010817,
    "MEAN_MOTION_DOT": 0.0033724,
    "MEAN_MOTION_DDOT": 0
  },
  {
    "OBJECT_NAME": "GAOFEN-4",
    "OBJECT_ID": "2015-083A",
    "EPOCH": "2025-05-31T14:49:58.058976",
    "MEAN_MOTION": 1.00268107,
    "ECCENTRICITY": 0.0004553,
    "INCLINATION": 0.0556,
    "RA_OF_ASC_NODE": 266.9106,
    "ARG_OF_PERICENTER": 264.877,
    "MEAN_ANOMALY": 45.8089,
    "EPHEMERIS_TYPE": 0,
    "CLASSIFICATION_TYPE": "U",
    "NORAD_CAT_ID": 41194,
    "ELEMENT_SET_NO": 999,
    "REV_AT_EPOCH": 3470,
    "BSTAR": 0,
    "MEAN_MOTION_DOT": -3.4e-06,
    "MEAN_MOTION_DDOT": 0
  },
  {
    "OBJECT_NAME": "JASON-3",
    "OBJECT_ID": "2016-002A",
    "EPOCH": "2025-05-31T12:42:03.832128",
    "MEAN_MOTION": 12.80928632,
    "ECCENTRICITY": 0.0008166,
    "INCLINATION": 66.0407,
    "RA_OF_ASC_NODE": 208.0559,
    "ARG_OF_PERICENTER": 269.8926,
    "MEAN_ANOMALY": 90.1154,
    "EPHEMERIS_TYPE": 0,
    "CLASSIFICATION_TYPE": "U",
    "NORAD_CAT_ID": 41240,
    "ELEMENT_SET_NO": 999,
    "REV_AT_EPOCH": 43811,
    "BSTAR": 9.1572e-05,
    "MEAN_MOTION_DOT": -4e-07,
    "MEAN_MOTION_DDOT": 0
  },
  {
    "OBJECT_NAME": "SENTINEL-3A",
    "OBJECT_ID": "2016-011A",
    "EPOCH": "2025-05-31T20:24:21.467808",
    "MEAN_MOTION": 14.26737866,
    "ECCENTRICITY": 0.000125,
    "INCLINATION": 98.6258,
    "RA_OF_ASC_NODE": 219.6734,
    "ARG_OF_PERICENTER": 109.6996,
    "MEAN_ANOMALY": 250.4319,
    "EPHEMERIS_TYPE": 0,
    "CLASSIFICATION_TYPE": "U",
    "NORAD_CAT_ID": 41335,
    "ELEMENT_SET_NO": 999,
    "REV_AT_EPOCH": 48368,
    "BSTAR": 7.5578e-05,
    "MEAN_MOTION_DOT": 1.39e-06,
    "MEAN_MOTION_DDOT": 0
  },
  {
    "OBJECT_NAME": "ZIYUAN 3-2 (ZY 3-2)",
    "OBJECT_ID": "2016-033A",
    "EPOCH": "2025-05-31T19:56:45.256704",
    "MEAN_MOTION": 15.21310464,
    "ECCENTRICITY": 0.0008308,
    "INCLINATION": 97.4191,
    "RA_OF_ASC_NODE": 229.0003,
    "ARG_OF_PERICENTER": 187.9028,
    "MEAN_ANOMALY": 172.2079,
    "EPHEMERIS_TYPE": 0,
    "CLASSIFICATION_TYPE": "U",
    "NORAD_CAT_ID": 41556,
    "ELEMENT_SET_NO": 999,
    "REV_AT_EPOCH": 50000,
    "BSTAR": 0.00029924,
    "MEAN_MOTION_DOT": 6.633e-05,
    "MEAN_MOTION_DDOT": 0
  },
  {
    "OBJECT_NAME": "CARTOSAT-2C",
    "OBJECT_ID": "2016-040A",
    "EPOCH": "2025-05-31T20:09:38.948832",
    "MEAN_MOTION": 15.19233817,
    "ECCENTRICITY": 0.0011899,
    "INCLINATION": 97.4225,
    "RA_OF_ASC_NODE": 212.1543,
    "ARG_OF_PERICENTER": 26.8575,
    "MEAN_ANOMALY": 333.3274,
    "EPHEMERIS_TYPE": 0,
    "CLASSIFICATION_TYPE": "U",
    "NORAD_CAT_ID": 41599,
    "ELEMENT_SET_NO": 999,
    "REV_AT_EPOCH": 49581,
    "BSTAR": 0.0002503,
    "MEAN_MOTION_DOT": 5.214e-05,
    "MEAN_MOTION_DDOT": 0
  },
  {
    "OBJECT_NAME": "SKYSAT-C1",
    "OBJECT_ID": "2016-040C",
    "EPOCH": "2025-05-31T16:37:21.885888",
    "MEAN_MOTION": 15.29719066,
    "ECCENTRICITY": 0.0003701,
    "INCLINATION": 97.0058,
    "RA_OF_ASC_NODE": 199.8846,
    "ARG_OF_PERICENTER": 104.9166,
    "MEAN_ANOMALY": 255.2486,
    "EPHEMERIS_TYPE": 0,
    "CLASSIFICATION_TYPE": "U",
    "NORAD_CAT_ID": 41601,
    "ELEMENT_SET_NO": 999,
    "REV_AT_EPOCH": 49944,
    "BSTAR": 0.0002576,
    "MEAN_MOTION_DOT": 7.348e-05,
    "MEAN_MOTION_DDOT": 0
  },
  {
    "OBJECT_NAME": "LAPAN-A3",
    "OBJECT_ID": "2016-040E",
    "EPOCH": "2025-05-31T20:47:49.575264",
    "MEAN_MOTION": 15.2979776,
    "ECCENTRICITY": 0.0009343,
    "INCLINATION": 97.1369,
    "RA_OF_ASC_NODE": 156.8169,
    "ARG_OF_PERICENTER": 306.8375,
    "MEAN_ANOMALY": 53.2008,
    "EPHEMERIS_TYPE": 0,
    "CLASSIFICATION_TYPE": "U",
    "NORAD_CAT_ID": 41603,
    "ELEMENT_SET_NO": 999,
    "REV_AT_EPOCH": 49645,
    "BSTAR": 0.00011884,
    "MEAN_MOTION_DOT": 3.361e-05,
    "MEAN_MOTION_DDOT": 0
  },
  {
    "OBJECT_NAME": "BIROS",
    "OBJECT_ID": "2016-040F",
    "EPOCH": "2025-05-31T19:48:20.594304",
    "MEAN_MOTION": 15.61603126,
    "ECCENTRICITY": 0.0005375,
    "INCLINATION": 97.0865,
    "RA_OF_ASC_NODE": 180.7148,
    "ARG_OF_PERICENTER": 180.4984,
    "MEAN_ANOMALY": 179.627,
    "EPHEMERIS_TYPE": 0,
    "CLASSIFICATION_TYPE": "U",
    "NORAD_CAT_ID": 41604,
    "ELEMENT_SET_NO": 999,
    "REV_AT_EPOCH": 49813,
    "BSTAR": 0.00033332,
    "MEAN_MOTION_DOT": 0.00028587,
    "MEAN_MOTION_DDOT": 0
  }
]