YAOGAN-27               
1 40878U 15040A   25151.85732107 -.00000018  00000+0  62719-4 0  9992
2 40878 100.0863 150.3794 0008529  20.0922 340.0526 13.16049101469011
GAOFEN-9 01             
1 40894U 15047A   25151.88634469  .00001037  00000+0  13688-3 0  9993
2 40894  97.6778 198.9866 0026668 311.9396  47.9545 14.81843201523701
YAOGAN-28               
1 41026U 15064A   25151.85241719  .00007558  00000+0  31457-3 0  9997
2 41026  97.2572 295.6755 0015880  87.9516 272.3540 15.23912476532579
YAOGAN-29               
1 41038U 15069A   25151.85859661  .00000456  00000+0  63356-4 0  9990
2 41038  98.0347 174.2010 0002074 138.1313 222.0059 14.82626217514118
KENT RIDGE 1            
1 41167U 15077B   25151.82967656  .00003983  00000+0  14647-3 0  9999
2 41167  14.9788 215.1381 0009013 270.6882  89.2407 15.19917381523066
TELEOS-1                
1 41169U 15077D   25151.20917208  .00337240  00000+0  10817-2 0  9991
2 41169  14.9778 358.0387 0003861 343.9269  16.0939 15.88779026524920
GAOFEN-4                
1 41194U 15083A   25151.61803309 -.00000340  00000+0  00000+0 0  9996
2 41194   0.0556 266.9106 0004553 264.8770  45.8089  1.00268107 34701
JASON-3                 
1 41240U 16002A   25151.52921102 -.00000040  00000+0  91572-4 0  9998
2 41240  66.0407 208.0559 0008166 269.8926  90.1154 12.80928632438116
SENTINEL-3A             
1 41335U 16011A   25151.85024847  .00000139  00000+0  75578-4 0  9995
2 41335  98.6258 219.6734 0001250 109.6996 250.4319 14.26737866483689
ZIYUAN 3-2 (ZY 3-2)     
1 41556U 16033A   25151.83107936  .00006633  00000+0  29924-3 0  9991
2 41556  97.4191 229.0003 0008308 187.9028 172.2079 15.21310464500004
CARTOSAT-2C             
1 41599U 16040A   25151.84003413  .00005214  00000+0  25030-3 0  9990
2 41599  97.4225 212.1543 0011899  26.8575 333.3274 15.19233817495810
SKYSAT-C1               
1 41601U 16040C   25151.69261442  .00007348  00000+0  25760-3 0  9995
2 41601  97.0058 199.8846 0003701 104.9166 255.2486 15.29719066499444
LAPAN-A3                
1 41603U 16040E   25151.86654601  .00003361  00000+0  11884-3 0  9992
2 41603  97.1369 156.8169 0009343 306.8375  53.2008 15.29797760496457
BIROS                   
1 41604U 16040F   25151.82523836  .00028587  00000+0  33332-3 0  9993
2 41604  97.0865 180.7148 0005375 180.4984 179.6270 15.61603126498133
